{
 "generated_at": "2026-07-17T07:16:58Z",
 "sources": [
  {
   "name": "CelesTrak",
   "url": "https://celestrak.org/NORAD/elements/",
   "license": "frei verfügbar; Attribution. Ursprünglich USSPACECOM/Space-Track."
  },
  {
   "name": "GCAT (J. McDowell, planet4589.org)",
   "url": "https://planet4589.org/space/gcat/",
   "license": "CC-BY 4.0"
  }
 ],
 "satellites": [
  {
   "norad": 43437,
   "name": "SENTINEL-3B",
   "intl": "2018-039A",
   "group": "resource",
   "gcat": {
    "class": "C",
    "category": "IMG",
    "owner": "COPERN/ESA",
    "state": "I-EU"
   },
   "omm": {
    "OBJECT_NAME": "SENTINEL-3B",
    "OBJECT_ID": "2018-039A",
    "EPOCH": "2026-07-16T18:49:41.244096",
    "MEAN_MOTION": 14.26736639,
    "ECCENTRICITY": 0.0001186,
    "INCLINATION": 98.6236,
    "RA_OF_ASC_NODE": 264.89,
    "ARG_OF_PERICENTER": 119.7266,
    "MEAN_ANOMALY": 240.4033,
    "EPHEMERIS_TYPE": 0,
    "CLASSIFICATION_TYPE": "U",
    "NORAD_CAT_ID": 43437,
    "ELEMENT_SET_NO": 999,
    "REV_AT_EPOCH": 42834,
    "BSTAR": 0.000037772,
    "MEAN_MOTION_DOT": 4.8e-7,
    "MEAN_MOTION_DDOT": 0
   }
  },
  {
   "norad": 42969,
   "name": "SENTINEL-5P",
   "intl": "2017-064A",
   "group": "resource",
   "gcat": {
    "class": "C",
    "category": "IMG",
    "owner": "COPERN/ESA",
    "state": "I-EU"
   },
   "omm": {
    "OBJECT_NAME": "SENTINEL-5P",
    "OBJECT_ID": "2017-064A",
    "EPOCH": "2026-07-16T10:53:04.341408",
    "MEAN_MOTION": 14.19523387,
    "ECCENTRICITY": 0.0001152,
    "INCLINATION": 98.7929,
    "RA_OF_ASC_NODE": 139.3777,
    "ARG_OF_PERICENTER": 93.3196,
    "MEAN_ANOMALY": 266.8111,
    "EPHEMERIS_TYPE": 0,
    "CLASSIFICATION_TYPE": "U",
    "NORAD_CAT_ID": 42969,
    "ELEMENT_SET_NO": 999,
    "REV_AT_EPOCH": 45371,
    "BSTAR": 0.000025784,
    "MEAN_MOTION_DOT": 1e-7,
    "MEAN_MOTION_DDOT": 0
   }
  },
  {
   "norad": 46984,
   "name": "SENTINEL-6A",
   "intl": "2020-086A",
   "group": "resource",
   "gcat": {
    "class": "C",
    "category": "EOSCI",
    "owner": "COPERN/ESA",
    "state": "I-EU"
   },
   "omm": {
    "OBJECT_NAME": "SENTINEL-6A",
    "OBJECT_ID": "2020-086A",
    "EPOCH": "2026-07-16T16:13:49.060128",
    "MEAN_MOTION": 12.80930202,
    "ECCENTRICITY": 0.0007781,
    "INCLINATION": 66.0412,
    "RA_OF_ASC_NODE": 73.8043,
    "ARG_OF_PERICENTER": 269.6984,
    "MEAN_ANOMALY": 90.314,
    "EPHEMERIS_TYPE": 0,
    "CLASSIFICATION_TYPE": "U",
    "NORAD_CAT_ID": 46984,
    "ELEMENT_SET_NO": 999,
    "REV_AT_EPOCH": 26410,
    "BSTAR": 0.000096185,
    "MEAN_MOTION_DOT": -3.9e-7,
    "MEAN_MOTION_DDOT": 0
   }
  },
  {
   "norad": 66514,
   "name": "SENTINEL-6B",
   "intl": "2025-264A",
   "group": "resource",
   "gcat": {
    "class": "C",
    "category": "EOSCI",
    "owner": "COPERN/ESA",
    "state": "I-EU"
   },
   "omm": {
    "OBJECT_NAME": "SENTINEL-6B",
    "OBJECT_ID": "2025-264A",
    "EPOCH": "2026-07-16T16:14:19.128192",
    "MEAN_MOTION": 12.80930175,
    "ECCENTRICITY": 0.0007842,
    "INCLINATION": 66.0412,
    "RA_OF_ASC_NODE": 73.9297,
    "ARG_OF_PERICENTER": 268.5768,
    "MEAN_ANOMALY": 91.4349,
    "EPHEMERIS_TYPE": 0,
    "CLASSIFICATION_TYPE": "U",
    "NORAD_CAT_ID": 66514,
    "ELEMENT_SET_NO": 999,
    "REV_AT_EPOCH": 3094,
    "BSTAR": 0.000087365,
    "MEAN_MOTION_DOT": -4.1e-7,
    "MEAN_MOTION_DDOT": 0
   }
  },
  {
   "norad": 28220,
   "name": "SHIYAN-1 (SY-1)",
   "intl": "2004-012A",
   "group": "resource",
   "gcat": {
    "class": null,
    "category": null,
    "owner": null,
    "state": null
   },
   "omm": {
    "OBJECT_NAME": "SHIYAN-1 (SY-1)",
    "OBJECT_ID": "2004-012A",
    "EPOCH": "2026-07-16T20:39:42.904800",
    "MEAN_MOTION": 15.34479585,
    "ECCENTRICITY": 0.0004109,
    "INCLINATION": 97.8686,
    "RA_OF_ASC_NODE": 277.8723,
    "ARG_OF_PERICENTER": 266.9613,
    "MEAN_ANOMALY": 93.1158,
    "EPHEMERIS_TYPE": 0,
    "CLASSIFICATION_TYPE": "U",
    "NORAD_CAT_ID": 28220,
    "ELEMENT_SET_NO": 999,
    "REV_AT_EPOCH": 21564,
    "BSTAR": 0.00024427,
    "MEAN_MOTION_DOT": 0.00008072,
    "MEAN_MOTION_DDOT": 0
   }
  },
  {
   "norad": 28893,
   "name": "SINAH 1",
   "intl": "2005-043D",
   "group": "resource",
   "gcat": {
    "class": null,
    "category": null,
    "owner": null,
    "state": null
   },
   "omm": {
    "OBJECT_NAME": "SINAH 1",
    "OBJECT_ID": "2005-043D",
    "EPOCH": "2026-07-16T20:23:51.633888",
    "MEAN_MOTION": 14.64176066,
    "ECCENTRICITY": 0.0014513,
    "INCLINATION": 98.2896,
    "RA_OF_ASC_NODE": 332.3524,
    "ARG_OF_PERICENTER": 178.3565,
    "MEAN_ANOMALY": 181.7688,
    "EPHEMERIS_TYPE": 0,
    "CLASSIFICATION_TYPE": "U",
    "NORAD_CAT_ID": 28893,
    "ELEMENT_SET_NO": 999,
    "REV_AT_EPOCH": 10486,
    "BSTAR": 0.000033283,
    "MEAN_MOTION_DOT": 0.00000126,
    "MEAN_MOTION_DDOT": 0
   }
  },
  {
   "norad": 39418,
   "name": "SKYSAT-A",
   "intl": "2013-066C",
   "group": "resource",
   "gcat": {
    "class": "B",
    "category": "IMG",
    "owner": "SKYBOX",
    "state": "US"
   },
   "omm": {
    "OBJECT_NAME": "SKYSAT-A",
    "OBJECT_ID": "2013-066C",
    "EPOCH": "2026-07-16T14:53:44.960064",
    "MEAN_MOTION": 15.13119725,
    "ECCENTRICITY": 0.0020608,
    "INCLINATION": 97.3802,
    "RA_OF_ASC_NODE": 246.0799,
    "ARG_OF_PERICENTER": 208.2257,
    "MEAN_ANOMALY": 151.7859,
    "EPHEMERIS_TYPE": 0,
    "CLASSIFICATION_TYPE": "U",
    "NORAD_CAT_ID": 39418,
    "ELEMENT_SET_NO": 999,
    "REV_AT_EPOCH": 69293,
    "BSTAR": 0.000087583,
    "MEAN_MOTION_DOT": 0.00001494,
    "MEAN_MOTION_DDOT": 0
   }
  },
  {
   "norad": 40072,
   "name": "SKYSAT-B",
   "intl": "2014-037D",
   "group": "resource",
   "gcat": {
    "class": "B",
    "category": "IMG",
    "owner": "SKYBOX",
    "state": "US"
   },
   "omm": {
    "OBJECT_NAME": "SKYSAT-B",
    "OBJECT_ID": "2014-037D",
    "EPOCH": "2026-07-16T10:37:31.469376",
    "MEAN_MOTION": 14.88093555,
    "ECCENTRICITY": 0.0005674,
    "INCLINATION": 98.3854,
    "RA_OF_ASC_NODE": 158.0796,
    "ARG_OF_PERICENTER": 168.9313,
    "MEAN_ANOMALY": 191.2027,
    "EPHEMERIS_TYPE": 0,
    "CLASSIFICATION_TYPE": "U",
    "NORAD_CAT_ID": 40072,
    "ELEMENT_SET_NO": 999,
    "REV_AT_EPOCH": 65031,
    "BSTAR": 0.000071529,
    "MEAN_MOTION_DOT": 0.00000596,
    "MEAN_MOTION_DDOT": 0
   }
  },
  {
   "norad": 41601,
   "name": "SKYSAT-C1",
   "intl": "2016-040C",
   "group": "resource",
   "gcat": {
    "class": "B",
    "category": "IMG",
    "owner": "TBELLA",
    "state": "US"
   },
   "omm": {
    "OBJECT_NAME": "SKYSAT-C1",
    "OBJECT_ID": "2016-040C",
    "EPOCH": "2026-07-16T15:39:15.301152",
    "MEAN_MOTION": 15.36763049,
    "ECCENTRICITY": 0.0000246,
    "INCLINATION": 96.9547,
    "RA_OF_ASC_NODE": 227.7813,
    "ARG_OF_PERICENTER": 251.8457,
    "MEAN_ANOMALY": 108.2762,
    "EPHEMERIS_TYPE": 0,
    "CLASSIFICATION_TYPE": "U",
    "NORAD_CAT_ID": 41601,
    "ELEMENT_SET_NO": 999,
    "REV_AT_EPOCH": 56239,
    "BSTAR": 0.00014428,
    "MEAN_MOTION_DOT": 0.00005107,
    "MEAN_MOTION_DDOT": 0
   }
  },
  {
   "norad": 42988,
   "name": "SKYSAT-C10",
   "intl": "2017-068B",
   "group": "resource",
   "gcat": {
    "class": "B",
    "category": "IMG",
    "owner": "PLABST",
    "state": "US"
   },
   "omm": {
    "OBJECT_NAME": "SKYSAT-C10",
    "OBJECT_ID": "2017-068B",
    "EPOCH": "2026-07-16T15:06:16.635744",
    "MEAN_MOTION": 15.35133944,
    "ECCENTRICITY": 0.0001491,
    "INCLINATION": 97.4544,
    "RA_OF_ASC_NODE": 334.7788,
    "ARG_OF_PERICENTER": 111.2984,
    "MEAN_ANOMALY": 248.8418,
    "EPHEMERIS_TYPE": 0,
    "CLASSIFICATION_TYPE": "U",
    "NORAD_CAT_ID": 42988,
    "ELEMENT_SET_NO": 999,
    "REV_AT_EPOCH": 48687,
    "BSTAR": 0.00018042,
    "MEAN_MOTION_DOT": 0.00006069,
    "MEAN_MOTION_DDOT": 0
   }
  }
 ]
}
